STARLINK-1558_new
1 16035C 20055J   21326.12742362 -.00015488  00000-0 -10375-2 0  3261
2 16035  53.0536 328.1703 0001855  53.5092  55.1926 15.06420935    13
STARLINK-1558_old
1 26035C 20055J   21325.16667448 -.00001076  00000-0 -72094-4 0  3250
2 26035  53.0536 332.4834 0001855  53.0418 242.5949 15.06400983    11
